
# Worst residual: 153.40 km
# MJD 60746.000000 (2025 Mar 12  0:00)
SaVas01 = ZTs0367 = A11jqAV = A11huvE
1 79891U 25000ZZT 25071.49919926  .00000000  00000-0  00000-0 0 26512
2 79891 020.5548 060.9561 8186582 298.4458 007.0953 00.89552608    02

# Worst residual: 243.02 km
# MJD 60747.000000 (2025 Mar 13  0:00)
SaVas01 = ZTs0367 = A11jqAV = A11huvE
1 79891U 25000ZZT 25072.49919926  .00000000  00000-0  00000-0 0 26513
2 79891 020.7990 059.5869 8200899 300.5687 325.8721 00.89381212    02

# Worst residual: 312.18 km
# MJD 60748.000000 (2025 Mar 14  0:00)
SaVas01 = ZTs0367 = A11jqAV = A11huvE
1 79891U 25000ZZT 25073.49919926  .00000000  00000-0  00000-0 0 26514
2 79891 021.0355 058.3196 8208478 302.5237 284.9448 00.89077468    01

# Worst residual: 171.38 km
# MJD 60749.000000 (2025 Mar 15  0:00)
SaVas01 = ZTs0367 = A11jqAV = A11huvE
1 79891U 25000ZZT 25074.49919926  .00000000  00000-0  00000-0 0 26515
2 79891 021.2591 057.1845 8205689 304.3523 244.1910 00.88824164    06

# Worst residual: 122.28 km
# MJD 60750.000000 (2025 Mar 16  0:00)
SaVas01 = ZTs0367 = A11jqAV = A11huvE
1 79891U 25000ZZT 25075.49919926  .00000000  00000-0  00000-0 0 26516
2 79891 021.5188 056.0624 8203975 306.2674 203.3759 00.88706523    04

# Worst residual: 117.00 km
# MJD 60751.000000 (2025 Mar 17  0:00)
SaVas01 = ZTs0367 = A11jqAV = A11huvE
1 79891U 25000ZZT 25076.49919926  .00000000  00000-0  00000-0 0 26517
2 79891 021.8354 054.8916 8210333 308.2238 162.6443 00.88705065    03

# Worst residual: 231.01 km
# MJD 60752.000000 (2025 Mar 18  0:00)
SaVas01 = ZTs0367 = A11jqAV = A11huvE
1 79891U 25000ZZT 25077.49919926  .00000000  00000-0  00000-0 0 26518
2 79891 022.1148 053.9388 8233076 309.9059 121.9780 00.88908536    09

# Worst residual: 245.57 km
# MJD 60753.000000 (2025 Mar 19  0:00)
SaVas01 = ZTs0367 = A11jqAV = A11huvE
1 79891U 25000ZZT 25078.49919926  .00000000  00000-0  00000-0 0 26519
2 79891 022.4228 052.9963 8246583 311.5437 081.2475 00.89187014    05

# Worst residual: 227.67 km
# MJD 60754.000000 (2025 Mar 20  0:00)
SaVas01 = ZTs0367 = A11jqAV = A11huvE
1 79891U 25000ZZT 25079.49919926  .00000000  00000-0  00000-0 0 26510
2 79891 022.8158 051.8275 8250371 313.4123 040.3128 00.89504054    06

# Worst residual: 207.14 km
# MJD 60755.000000 (2025 Mar 21  0:00)
SaVas01 = ZTs0367 = A11jqAV = A11huvE
1 79891U 25000ZZT 25080.49919926  .00000000  00000-0  00000-0 0 26703
2 79891 023.2538 050.6267 8265544 315.5244 358.0449 00.89549034    08

# Worst residual: 242.55 km
# MJD 60756.000000 (2025 Mar 22  0:00)
SaVas01 = ZTs0367 = A11jqAV = A11huvE
1 79891U 25000ZZT 25081.49919926  .00000000  00000-0  00000-0 0 26704
2 79891 023.6561 049.5186 8273055 317.3264 316.9773 00.89293860    09

# Worst residual: 313.40 km
# MJD 60757.000000 (2025 Mar 23  0:00)
SaVas01 = ZTs0367 = A11jqAV = A11huvE
1 79891U 25000ZZT 25082.49919926  .00000000  00000-0  00000-0 0 26705
2 79891 024.0132 048.5713 8269390 318.9291 276.1819 00.89001432    07

# Worst residual: 114.45 km
# MJD 60758.000000 (2025 Mar 24  0:00)
SaVas01 = ZTs0367 = A11jqAV = A11huvE
1 79891U 25000ZZT 25083.49919926  .00000000  00000-0  00000-0 0 26706
2 79891 024.3314 047.7501 8257371 320.4410 235.4884 00.88780760    02

# Worst residual: 123.02 km
# MJD 60759.000000 (2025 Mar 25  0:00)
SaVas01 = ZTs0367 = A11jqAV = A11huvE
1 79891U 25000ZZT 25084.49919926  .00000000  00000-0  00000-0 0 26707
2 79891 024.7376 046.8592 8256605 322.0964 194.7717 00.88722586    09

# Worst residual: 108.68 km
# MJD 60760.000000 (2025 Mar 26  0:00)
SaVas01 = ZTs0367 = A11jqAV = A11huvE
1 79891U 25000ZZT 25085.49919926  .00000000  00000-0  00000-0 0 26708
2 79891 025.1470 046.0356 8261130 323.6836 154.0750 00.88785155    00

# Worst residual: 233.44 km
# MJD 60761.000000 (2025 Mar 27  0:00)
SaVas01 = ZTs0367 = A11jqAV = A11huvE
1 79891U 25000ZZT 25086.49919926  .00000000  00000-0  00000-0 0 26709
2 79891 025.5014 045.4050 8274968 325.0033 113.4645 00.89010201    06

# Worst residual: 212.38 km
# MJD 60762.000000 (2025 Mar 28  0:00)
SaVas01 = ZTs0367 = A11jqAV = A11huvE
1 79891U 25000ZZT 25087.49919926  .00000000  00000-0  00000-0 0 26700
2 79891 025.9663 044.6610 8278609 326.4162 072.7507 00.89288507    07

# Worst residual: 182.71 km
# MJD 60763.000000 (2025 Mar 29  0:00)
SaVas01 = ZTs0367 = A11jqAV = A11huvE
1 79891U 25000ZZT 25088.49919926  .00000000  00000-0  00000-0 0 26701
2 79891 026.4530 043.8909 8275230 327.8820 031.7741 00.89544358    05

# Worst residual: 225.15 km
# MJD 60764.000000 (2025 Mar 30  0:00)
SaVas01 = ZTs0367 = A11jqAV = A11huvE
1 79891U 25000ZZT 25089.49919926  .00000000  00000-0  00000-0 0 26702
2 79891 026.9585 043.0982 8273301 329.4079 350.5628 00.89460750    03

# Worst residual: 235.10 km
# MJD 60765.000000 (2025 Mar 31  0:00)
SaVas01 = ZTs0367 = A11jqAV = A11huvE
1 79891U 25000ZZT 25090.49919926  .00000000  00000-0  00000-0 0 26704
2 79891 027.4301 042.3776 8270758 330.8170 309.5550 00.89190520    02

# Worst residual: 288.99 km
# MJD 60766.000000 (2025 Apr  1  0:00)
SaVas01 = ZTs0367 = A11jqAV = A11huvE
1 79891U 25000ZZT 25091.49919926  .00000000  00000-0  00000-0 0 26705
2 79891 027.8443 041.7701 8258875 332.0889 268.7659 00.88927652    00

# Worst residual: 111.61 km
# MJD 60767.000000 (2025 Apr  2  0:00)
SaVas01 = ZTs0367 = A11jqAV = A11huvE
1 79891U 25000ZZT 25092.49919926  .00000000  00000-0  00000-0 0 26706
2 79891 028.2112 041.2084 8239161 333.3601 228.0506 00.88733349    08

# Worst residual: 121.33 km
# MJD 60768.000000 (2025 Apr  3  0:00)
SaVas01 = ZTs0367 = A11jqAV = A11huvE
1 79891U 25000ZZT 25093.49919926  .00000000  00000-0  00000-0 0 26707
2 79891 028.6871 040.6270 8233796 334.7035 187.3947 00.88724827    05

# Worst residual: 152.06 km
# MJD 60769.000000 (2025 Apr  4  0:00)
SaVas01 = ZTs0367 = A11jqAV = A11huvE
1 79891U 25000ZZT 25094.49919926  .00000000  00000-0  00000-0 0 26708
2 79891 029.1257 040.1386 8236453 335.9508 146.7023 00.88853085    06
